ONEWEB-0685             
1 54679U 22166AP  25117.82205943  .00000018  00000+0  11255-4 0  9993
2 54679  87.9263 326.8248 0001952  79.5122 280.6231 13.21826373116549
ONEWEB-0712             
1 54680U 22166AQ  25117.81262773  .00000083  00000+0  18249-3 0  9999
2 54680  87.9015 311.5663 0001667  69.0038 291.1271 13.16593049117403
ONEWEB-0714             
1 54681U 22166AR  25117.82836098  .00000048  00000+0  85329-4 0  9993
2 54681  87.9264 326.8148 0001949  80.7927 279.3427 13.21824246116667
ONEWEB-0532             
1 55140U 23004A   25117.89031305  .00000016  00000+0  91039-5 0  9992
2 55140  87.9028  88.5581 0002396  93.1249 267.0157 13.17650257112890
ONEWEB-0533             
1 55141U 23004B   25117.88863532 -.00000182  00000+0 -54082-3 0  9998
2 55141  87.8864  73.2773 0002088  76.9479 283.1883 13.12444400113582
ONEWEB-0541             
1 55142U 23004C   25117.97526286 -.00000352  00000+0 -10288-2 0  9999
2 55142  87.8799 103.8133 0001994  86.8861 273.2495 13.11413400111526
ONEWEB-0543             
1 55143U 23004D   25117.81630695 -.00000005  00000+0 -44480-4 0  9991
2 55143  87.9131  58.0864 0001877  69.8661 290.2673 13.18687127114952
ONEWEB-0544             
1 55144U 23004E   25117.58235492  .00000002  00000+0 -26473-4 0  9990
2 55144  87.9130  58.1222 0001808  82.1840 277.9497 13.18687211114929
